SL-16 R/B               
1 25400U 98043G   25349.88562557  .00000065  00000+0  46060-4 0  9994
2 25400  98.8129 297.7213 0008797 256.5143 103.5056 14.26026432427045
SL-16 R/B               
1 25407U 98045B   25349.73133268 -.00000101  00000+0 -27099-4 0  9994
2 25407  71.0115 358.1353 0006744 172.5529 187.5696 14.16174543415216
ISS (ZARYA)             
1 25544U 98067A   25349.89461712  .00006813  00000+0  12896-3 0  9997
2 25544  51.6305 126.8563 0003169 254.4589 105.6050 15.49611341543340
CZ-4B R/B               
1 25732U 99025C   25349.87535705  .00000068  00000+0  53816-4 0  9997
2 25732  98.6765  31.0852 0036409 224.7833 308.5717 14.18244366376288
OKEAN-O                 
1 25860U 99039A   25349.89922592  .00000736  00000+0  10378-3 0  9997
2 25860  97.9601  45.5736 0000882 105.0894 255.0416 14.80166800421992
SL-16 R/B               
1 25861U 99039B   25349.89127569  .00000592  00000+0  82173-4 0  9992
2 25861  98.0124  44.0427 0015173 164.5478 195.6201 14.81591036424452
DELTA 2 R/B             
1 25876U 99041E   25349.82929486  .00001127  00000+0  22126-3 0  9998
2 25876  51.7616 276.1129 0504633 100.8750 264.9370 14.11409234351184
HELIOS 1B               
1 25977U 99064A   25349.69640462  .00001269  00000+0  14719-3 0  9990
2 25977  98.1757 244.4497 0001558  41.1331 319.0001 14.87295619672770
TERRA                   
1 25994U 99068A   25349.90600187  .00000462  00000+0  10357-3 0  9995
2 25994  97.9746  41.4743 0003602  88.3629  84.4744 14.60905450382843
SL-16 R/B               
1 26070U 00006B   25349.93689562 -.00000243  00000+0 -99150-4 0  9990
2 26070  71.0027 273.9352 0018552 304.3317  55.6050 14.15809707336709
TITAN 4B R/B            
1 26474U 00047B   25349.92503018  .00002767  00000+0  18107-3 0  9996
2 26474  67.9895 275.9089 0038716 140.6804 219.7168 15.08806055380279
ENVISAT                 
1 27386U 02009A   25349.88696517  .00000125  00000+0  54183-4 0  9992
2 27386  98.3604 300.5478 0001136  83.8244 293.5275 14.39000449247128
