CCSDS_OMM_VERS = 2.0
CREATION_DATE  = 
ORIGINATOR     = 

OBJECT_NAME    = SL-16 R/B
OBJECT_ID      = 1998-043G
CENTER_NAME    = EARTH
REF_FRAME      = TEME
TIME_SYSTEM    = UTC
MEAN_ELEMENT_THEORY = SGP/SGP4

EPOCH          = 2025-12-15T21:15:18.049248
MEAN_MOTION    = 14.26026432
ECCENTRICITY   = .00087972
INCLINATION    = 98.8129
RA_OF_ASC_NODE = 297.7213
ARG_OF_PERICENTER = 256.5143
MEAN_ANOMALY   = 103.5056

EPHEMERIS_TYPE = 0
CLASSIFICATION_TYPE = U
NORAD_CAT_ID   = 25400
ELEMENT_SET_NO = 999
REV_AT_EPOCH   = 42704
BSTAR          = .46059758E-4
MEAN_MOTION_DOT = .65E-6
MEAN_MOTION_DDOT = 0

CCSDS_OMM_VERS = 2.0
CREATION_DATE  = 
ORIGINATOR     = 

OBJECT_NAME    = SL-16 R/B
OBJECT_ID      = 1998-045B
CENTER_NAME    = EARTH
REF_FRAME      = TEME
TIME_SYSTEM    = UTC
MEAN_ELEMENT_THEORY = SGP/SGP4

EPOCH          = 2025-12-15T17:33:07.143552
MEAN_MOTION    = 14.16174543
ECCENTRICITY   = .00067449
INCLINATION    = 71.0115
RA_OF_ASC_NODE = 358.1353
ARG_OF_PERICENTER = 172.5529
MEAN_ANOMALY   = 187.5696

EPHEMERIS_TYPE = 0
CLASSIFICATION_TYPE = U
NORAD_CAT_ID   = 25407
ELEMENT_SET_NO = 999
REV_AT_EPOCH   = 41521
BSTAR          = -.27098872E-4
MEAN_MOTION_DOT = -.101E-5
MEAN_MOTION_DDOT = 0

CCSDS_OMM_VERS = 2.0
CREATION_DATE  = 
ORIGINATOR     = 

OBJECT_NAME    = ISS (ZARYA)
OBJECT_ID      = 1998-067A
CENTER_NAME    = EARTH
REF_FRAME      = TEME
TIME_SYSTEM    = UTC
MEAN_ELEMENT_THEORY = SGP/SGP4

EPOCH          = 2025-12-15T21:28:14.919168
MEAN_MOTION    = 15.49611341
ECCENTRICITY   = .0003169
INCLINATION    = 51.6305
RA_OF_ASC_NODE = 126.8563
ARG_OF_PERICENTER = 254.4589
MEAN_ANOMALY   = 105.6050

EPHEMERIS_TYPE = 0
CLASSIFICATION_TYPE = U
NORAD_CAT_ID   = 25544
ELEMENT_SET_NO = 999
REV_AT_EPOCH   = 54334
BSTAR          = .12896231E-3
MEAN_MOTION_DOT = .6813E-4
MEAN_MOTION_DDOT = 0

CCSDS_OMM_VERS = 2.0
CREATION_DATE  = 
ORIGINATOR     = 

OBJECT_NAME    = CZ-4B R/B
OBJECT_ID      = 1999-025C
CENTER_NAME    = EARTH
REF_FRAME      = TEME
TIME_SYSTEM    = UTC
MEAN_ELEMENT_THEORY = SGP/SGP4

EPOCH          = 2025-12-15T21:00:30.849120
MEAN_MOTION    = 14.18244366
ECCENTRICITY   = .00364093
INCLINATION    = 98.6765
RA_OF_ASC_NODE = 31.0852
ARG_OF_PERICENTER = 224.7833
MEAN_ANOMALY   = 308.5717

EPHEMERIS_TYPE = 0
CLASSIFICATION_TYPE = U
NORAD_CAT_ID   = 25732
ELEMENT_SET_NO = 999
REV_AT_EPOCH   = 37628
BSTAR          = .5381581E-4
MEAN_MOTION_DOT = .68E-6
MEAN_MOTION_DDOT = 0

CCSDS_OMM_VERS = 2.0
CREATION_DATE  = 
ORIGINATOR     = 

OBJECT_NAME    = OKEAN-O
OBJECT_ID      = 1999-039A
CENTER_NAME    = EARTH
REF_FRAME      = TEME
TIME_SYSTEM    = UTC
MEAN_ELEMENT_THEORY = SGP/SGP4

EPOCH          = 2025-12-15T21:34:53.119488
MEAN_MOTION    = 14.80166800
ECCENTRICITY   = .00008825
INCLINATION    = 97.9601
RA_OF_ASC_NODE = 45.5736
ARG_OF_PERICENTER = 105.0894
MEAN_ANOMALY   = 255.0416

EPHEMERIS_TYPE = 0
CLASSIFICATION_TYPE = U
NORAD_CAT_ID   = 25860
ELEMENT_SET_NO = 999
REV_AT_EPOCH   = 42199
BSTAR          = .10377593E-3
MEAN_MOTION_DOT = .736E-5
MEAN_MOTION_DDOT = 0

CCSDS_OMM_VERS = 2.0
CREATION_DATE  = 
ORIGINATOR     = 

OBJECT_NAME    = SL-16 R/B
OBJECT_ID      = 1999-039B
CENTER_NAME    = EARTH
REF_FRAME      = TEME
TIME_SYSTEM    = UTC
MEAN_ELEMENT_THEORY = SGP/SGP4

EPOCH          = 2025-12-15T21:23:26.219616
MEAN_MOTION    = 14.81591036
ECCENTRICITY   = .00151736
INCLINATION    = 98.0124
RA_OF_ASC_NODE = 44.0427
ARG_OF_PERICENTER = 164.5478
MEAN_ANOMALY   = 195.6201

EPHEMERIS_TYPE = 0
CLASSIFICATION_TYPE = U
NORAD_CAT_ID   = 25861
ELEMENT_SET_NO = 999
REV_AT_EPOCH   = 42445
BSTAR          = .82173337E-4
MEAN_MOTION_DOT = .592E-5
MEAN_MOTION_DDOT = 0

CCSDS_OMM_VERS = 2.0
CREATION_DATE  = 
ORIGINATOR     = 

OBJECT_NAME    = DELTA 2 R/B
OBJECT_ID      = 1999-041E
CENTER_NAME    = EARTH
REF_FRAME      = TEME
TIME_SYSTEM    = UTC
MEAN_ELEMENT_THEORY = SGP/SGP4

EPOCH          = 2025-12-15T19:54:11.075904
MEAN_MOTION    = 14.11409234
ECCENTRICITY   = .05046337
INCLINATION    = 51.7616
RA_OF_ASC_NODE = 276.1129
ARG_OF_PERICENTER = 100.8750
MEAN_ANOMALY   = 264.9370

EPHEMERIS_TYPE = 0
CLASSIFICATION_TYPE = U
NORAD_CAT_ID   = 25876
ELEMENT_SET_NO = 999
REV_AT_EPOCH   = 35118
BSTAR          = .22125662E-3
MEAN_MOTION_DOT = .1127E-4
MEAN_MOTION_DDOT = 0

CCSDS_OMM_VERS = 2.0
CREATION_DATE  = 
ORIGINATOR     = 

OBJECT_NAME    = HELIOS 1B
OBJECT_ID      = 1999-064A
CENTER_NAME    = EARTH
REF_FRAME      = TEME
TIME_SYSTEM    = UTC
MEAN_ELEMENT_THEORY = SGP/SGP4

EPOCH          = 2025-12-15T16:42:49.359168
MEAN_MOTION    = 14.87295619
ECCENTRICITY   = .00015582
INCLINATION    = 98.1757
RA_OF_ASC_NODE = 244.4497
ARG_OF_PERICENTER = 41.1331
MEAN_ANOMALY   = 319.0001

EPHEMERIS_TYPE = 0
CLASSIFICATION_TYPE = U
NORAD_CAT_ID   = 25977
ELEMENT_SET_NO = 999
REV_AT_EPOCH   = 67277
BSTAR          = .14719222E-3
MEAN_MOTION_DOT = .1269E-4
MEAN_MOTION_DDOT = 0

CCSDS_OMM_VERS = 2.0
CREATION_DATE  = 
ORIGINATOR     = 

OBJECT_NAME    = TERRA
OBJECT_ID      = 1999-068A
CENTER_NAME    = EARTH
REF_FRAME      = TEME
TIME_SYSTEM    = UTC
MEAN_ELEMENT_THEORY = SGP/SGP4

EPOCH          = 2025-12-15T21:44:38.561568
MEAN_MOTION    = 14.60905450
ECCENTRICITY   = .00036021
INCLINATION    = 97.9746
RA_OF_ASC_NODE = 41.4743
ARG_OF_PERICENTER = 88.3629
MEAN_ANOMALY   = 84.4744

EPHEMERIS_TYPE = 0
CLASSIFICATION_TYPE = U
NORAD_CAT_ID   = 25994
ELEMENT_SET_NO = 999
REV_AT_EPOCH   = 38284
BSTAR          = .10356677E-3
MEAN_MOTION_DOT = .462E-5
MEAN_MOTION_DDOT = 0

CCSDS_OMM_VERS = 2.0
CREATION_DATE  = 
ORIGINATOR     = 

OBJECT_NAME    = SL-16 R/B
OBJECT_ID      = 2000-006B
CENTER_NAME    = EARTH
REF_FRAME      = TEME
TIME_SYSTEM    = UTC
MEAN_ELEMENT_THEORY = SGP/SGP4

EPOCH          = 2025-12-15T22:29:07.781568
MEAN_MOTION    = 14.15809707
ECCENTRICITY   = .00185526
INCLINATION    = 71.0027
RA_OF_ASC_NODE = 273.9352
ARG_OF_PERICENTER = 304.3317
MEAN_ANOMALY   = 55.6050

EPHEMERIS_TYPE = 0
CLASSIFICATION_TYPE = U
NORAD_CAT_ID   = 26070
ELEMENT_SET_NO = 999
REV_AT_EPOCH   = 33670
BSTAR          = -.99150068E-4
MEAN_MOTION_DOT = -.243E-5
MEAN_MOTION_DDOT = 0

CCSDS_OMM_VERS = 2.0
CREATION_DATE  = 
ORIGINATOR     = 

OBJECT_NAME    = TITAN 4B R/B
OBJECT_ID      = 2000-047B
CENTER_NAME    = EARTH
REF_FRAME      = TEME
TIME_SYSTEM    = UTC
MEAN_ELEMENT_THEORY = SGP/SGP4

EPOCH          = 2025-12-15T22:12:02.607552
MEAN_MOTION    = 15.08806055
ECCENTRICITY   = .00387165
INCLINATION    = 67.9895
RA_OF_ASC_NODE = 275.9089
ARG_OF_PERICENTER = 140.6804
MEAN_ANOMALY   = 219.7168

EPHEMERIS_TYPE = 0
CLASSIFICATION_TYPE = U
NORAD_CAT_ID   = 26474
ELEMENT_SET_NO = 999
REV_AT_EPOCH   = 38027
BSTAR          = .18106512E-3
MEAN_MOTION_DOT = .2767E-4
MEAN_MOTION_DDOT = 0

CCSDS_OMM_VERS = 2.0
CREATION_DATE  = 
ORIGINATOR     = 

OBJECT_NAME    = ENVISAT
OBJECT_ID      = 2002-009A
CENTER_NAME    = EARTH
REF_FRAME      = TEME
TIME_SYSTEM    = UTC
MEAN_ELEMENT_THEORY = SGP/SGP4

EPOCH          = 2025-12-15T21:17:13.790688
MEAN_MOTION    = 14.39000449
ECCENTRICITY   = .00011364
INCLINATION    = 98.3604
RA_OF_ASC_NODE = 300.5478
ARG_OF_PERICENTER = 83.8244
MEAN_ANOMALY   = 293.5275

EPHEMERIS_TYPE = 0
CLASSIFICATION_TYPE = U
NORAD_CAT_ID   = 27386
ELEMENT_SET_NO = 999
REV_AT_EPOCH   = 24712
BSTAR          = .54183399E-4
MEAN_MOTION_DOT = .125E-5
MEAN_MOTION_DDOT = 0

